[{"OBJECT_NAME":"STARLINK-35911","OBJECT_ID":"2026-041M","EPOCH":"2026-03-17T20:55:01.939872","MEAN_MOTION":15.80934471,"ECCENTRICITY":9.22e-5,"INCLINATION":53.1594,"RA_OF_ASC_NODE":21.0414,"ARG_OF_PERICENTER":352.8474,"MEAN_ANOMALY":7.2535,"EPHEMERIS_TYPE":0,"CLASSIFICATION_TYPE":"U","NORAD_CAT_ID":68051,"ELEMENT_SET_NO":999,"REV_AT_EPOCH":251,"BSTAR":0.0013186,"MEAN_MOTION_DOT":0.00268561,"MEAN_MOTION_DDOT":0},{"OBJECT_NAME":"STARLINK-35808","OBJECT_ID":"2026-041N","EPOCH":"2026-03-17T20:53:56.836608","MEAN_MOTION":15.80929924,"ECCENTRICITY":0.0001216,"INCLINATION":53.1595,"RA_OF_ASC_NODE":21.0358,"ARG_OF_PERICENTER":143.2548,"MEAN_ANOMALY":216.8558,"EPHEMERIS_TYPE":0,"CLASSIFICATION_TYPE":"U","NORAD_CAT_ID":68052,"ELEMENT_SET_NO":999,"REV_AT_EPOCH":251,"BSTAR":0.0010459,"MEAN_MOTION_DOT":0.00211414,"MEAN_MOTION_DDOT":0},{"OBJECT_NAME":"STARLINK-36919","OBJECT_ID":"2026-041P","EPOCH":"2026-03-17T20:52:52.203360","MEAN_MOTION":15.80938051,"ECCENTRICITY":9.4e-5,"INCLINATION":53.1594,"RA_OF_ASC_NODE":21.0301,"ARG_OF_PERICENTER":351.3284,"MEAN_ANOMALY":8.7722,"EPHEMERIS_TYPE":0,"CLASSIFICATION_TYPE":"U","NORAD_CAT_ID":68053,"ELEMENT_SET_NO":999,"REV_AT_EPOCH":251,"BSTAR":0.0012202,"MEAN_MOTION_DOT":0.0024791,"MEAN_MOTION_DDOT":0},{"OBJECT_NAME":"STARLINK-36924","OBJECT_ID":"2026-041Q","EPOCH":"2026-03-17T18:00:01.999296","MEAN_MOTION":15.75215565,"ECCENTRICITY":0.0001118,"INCLINATION":53.1599,"RA_OF_ASC_NODE":21.714,"ARG_OF_PERICENTER":79.4031,"MEAN_ANOMALY":276.9577,"EPHEMERIS_TYPE":0,"CLASSIFICATION_TYPE":"U","NORAD_CAT_ID":68054,"ELEMENT_SET_NO":999,"REV_AT_EPOCH":367,"BSTAR":0.0001242,"MEAN_MOTION_DOT":0.00018421,"MEAN_MOTION_DDOT":0},{"OBJECT_NAME":"STARLINK-35998","OBJECT_ID":"2026-041R","EPOCH":"2026-03-17T20:51:47.406816","MEAN_MOTION":15.80907301,"ECCENTRICITY":0.0001217,"INCLINATION":53.1595,"RA_OF_ASC_NODE":21.026,"ARG_OF_PERICENTER":318.135,"MEAN_ANOMALY":41.9579,"EPHEMERIS_TYPE":0,"CLASSIFICATION_TYPE":"U","NORAD_CAT_ID":68055,"ELEMENT_SET_NO":999,"REV_AT_EPOCH":251,"BSTAR":0.0013298,"MEAN_MOTION_DOT":0.00270585,"MEAN_MOTION_DDOT":0},{"OBJECT_NAME":"STARLINK-36845","OBJECT_ID":"2026-041S","EPOCH":"2026-03-17T20:49:37.699680","MEAN_MOTION":15.80942224,"ECCENTRICITY":0.0001357,"INCLINATION":53.1593,"RA_OF_ASC_NODE":21.0151,"ARG_OF_PERICENTER":124.8017,"MEAN_ANOMALY":235.3134,"EPHEMERIS_TYPE":0,"CLASSIFICATION_TYPE":"U","NORAD_CAT_ID":68056,"ELEMENT_SET_NO":999,"REV_AT_EPOCH":251,"BSTAR":0.0010896,"MEAN_MOTION_DOT":0.00220647,"MEAN_MOTION_DDOT":0},{"OBJECT_NAME":"STARLINK-36954","OBJECT_ID":"2026-041T","EPOCH":"2026-03-17T18:00:01.999296","MEAN_MOTION":15.75207663,"ECCENTRICITY":0.0001134,"INCLINATION":53.1596,"RA_OF_ASC_NODE":21.7094,"ARG_OF_PERICENTER":128.4791,"MEAN_ANOMALY":229.7412,"EPHEMERIS_TYPE":0,"CLASSIFICATION_TYPE":"U","NORAD_CAT_ID":68057,"ELEMENT_SET_NO":999,"REV_AT_EPOCH":367,"BSTAR":0.00036515,"MEAN_MOTION_DOT":0.00055626,"MEAN_MOTION_DDOT":0},{"OBJECT_NAME":"STARLINK-36899","OBJECT_ID":"2026-041U","EPOCH":"2026-03-17T18:00:01.999296","MEAN_MOTION":15.7513058,"ECCENTRICITY":0.0001104,"INCLINATION":53.1597,"RA_OF_ASC_NODE":21.6602,"ARG_OF_PERICENTER":103.6885,"MEAN_ANOMALY":278.5461,"EPHEMERIS_TYPE":0,"CLASSIFICATION_TYPE":"U","NORAD_CAT_ID":68058,"ELEMENT_SET_NO":999,"REV_AT_EPOCH":367,"BSTAR":0.00057026,"MEAN_MOTION_DOT":0.00087264,"MEAN_MOTION_DDOT":0},{"OBJECT_NAME":"STARLINK-36917","OBJECT_ID":"2026-041V","EPOCH":"2026-03-17T20:46:24.582720","MEAN_MOTION":15.80594018,"ECCENTRICITY":0.000137,"INCLINATION":53.1593,"RA_OF_ASC_NODE":21.0002,"ARG_OF_PERICENTER":242.9505,"MEAN_ANOMALY":117.1378,"EPHEMERIS_TYPE":0,"CLASSIFICATION_TYPE":"U","NORAD_CAT_ID":68059,"ELEMENT_SET_NO":999,"REV_AT_EPOCH":251,"BSTAR":-0.0011544,"MEAN_MOTION_DOT":-0.00220005,"MEAN_MOTION_DDOT":0},{"OBJECT_NAME":"STARLINK-36959","OBJECT_ID":"2026-041W","EPOCH":"2026-03-17T18:00:01.999296","MEAN_MOTION":15.75172977,"ECCENTRICITY":9.48e-5,"INCLINATION":53.1593,"RA_OF_ASC_NODE":21.6069,"ARG_OF_PERICENTER":112.467,"MEAN_ANOMALY":295.4182,"EPHEMERIS_TYPE":0,"CLASSIFICATION_TYPE":"U","NORAD_CAT_ID":68060,"ELEMENT_SET_NO":999,"REV_AT_EPOCH":367,"BSTAR":0.00066314,"MEAN_MOTION_DOT":0.00101949,"MEAN_MOTION_DDOT":0},{"OBJECT_NAME":"STARLINK-36915","OBJECT_ID":"2026-041X","EPOCH":"2026-03-17T20:44:13.518240","MEAN_MOTION":15.80952239,"ECCENTRICITY":4.54e-5,"INCLINATION":53.1592,"RA_OF_ASC_NODE":20.9893,"ARG_OF_PERICENTER":49.7051,"MEAN_ANOMALY":310.4012,"EPHEMERIS_TYPE":0,"CLASSIFICATION_TYPE":"U","NORAD_CAT_ID":68061,"ELEMENT_SET_NO":999,"REV_AT_EPOCH":251,"BSTAR":0.0013678,"MEAN_MOTION_DOT":0.0027921,"MEAN_MOTION_DDOT":0},{"OBJECT_NAME":"STARLINK-36952","OBJECT_ID":"2026-041Y","EPOCH":"2026-03-17T18:00:01.999296","MEAN_MOTION":15.75207834,"ECCENTRICITY":9.54e-5,"INCLINATION":53.1595,"RA_OF_ASC_NODE":21.6562,"ARG_OF_PERICENTER":82.1915,"MEAN_ANOMALY":301.7911,"EPHEMERIS_TYPE":0,"CLASSIFICATION_TYPE":"U","NORAD_CAT_ID":68062,"ELEMENT_SET_NO":999,"REV_AT_EPOCH":367,"BSTAR":0.0002253,"MEAN_MOTION_DOT":0.00033987,"MEAN_MOTION_DDOT":0},{"OBJECT_NAME":"STARLINK-37000","OBJECT_ID":"2026-041Z","EPOCH":"2026-03-17T20:42:03.880224","MEAN_MOTION":15.80931374,"ECCENTRICITY":8.78e-5,"INCLINATION":53.1596,"RA_OF_ASC_NODE":20.98,"ARG_OF_PERICENTER":58.9775,"MEAN_ANOMALY":301.1334,"EPHEMERIS_TYPE":0,"CLASSIFICATION_TYPE":"U","NORAD_CAT_ID":68063,"ELEMENT_SET_NO":999,"REV_AT_EPOCH":251,"BSTAR":0.00096802,"MEAN_MOTION_DOT":0.00195262,"MEAN_MOTION_DDOT":0},{"OBJECT_NAME":"STARLINK-36996","OBJECT_ID":"2026-041AA","EPOCH":"2026-03-17T20:40:58.818432","MEAN_MOTION":15.81019734,"ECCENTRICITY":6.39e-5,"INCLINATION":53.1591,"RA_OF_ASC_NODE":20.9736,"ARG_OF_PERICENTER":66.4716,"MEAN_ANOMALY":293.6374,"EPHEMERIS_TYPE":0,"CLASSIFICATION_TYPE":"U","NORAD_CAT_ID":68064,"ELEMENT_SET_NO":999,"REV_AT_EPOCH":251,"BSTAR":0.0019409,"MEAN_MOTION_DOT":0.00403561,"MEAN_MOTION_DDOT":0},{"OBJECT_NAME":"STARLINK-36836","OBJECT_ID":"2026-041AB","EPOCH":"2026-03-17T20:38:49.314336","MEAN_MOTION":15.80933517,"ECCENTRICITY":0.0001125,"INCLINATION":53.1592,"RA_OF_ASC_NODE":20.9641,"ARG_OF_PERICENTER":119.2656,"MEAN_ANOMALY":240.848,"EPHEMERIS_TYPE":0,"CLASSIFICATION_TYPE":"U","NORAD_CAT_ID":68065,"ELEMENT_SET_NO":999,"REV_AT_EPOCH":251,"BSTAR":0.0011498,"MEAN_MOTION_DOT":0.00233123,"MEAN_MOTION_DDOT":0},{"OBJECT_NAME":"STARLINK-36976","OBJECT_ID":"2026-041AC","EPOCH":"2026-03-17T18:00:01.999296","MEAN_MOTION":15.75194358,"ECCENTRICITY":0.0001122,"INCLINATION":53.1594,"RA_OF_ASC_NODE":21.5536,"ARG_OF_PERICENTER":112.7881,"MEAN_ANOMALY":320.8438,"EPHEMERIS_TYPE":0,"CLASSIFICATION_TYPE":"U","NORAD_CAT_ID":68066,"ELEMENT_SET_NO":999,"REV_AT_EPOCH":367,"BSTAR":0.0003694,"MEAN_MOTION_DOT":0.00056252,"MEAN_MOTION_DDOT":0},{"OBJECT_NAME":"STARLINK-36929","OBJECT_ID":"2026-041AD","EPOCH":"2026-03-17T18:00:01.999296","MEAN_MOTION":15.75176263,"ECCENTRICITY":8.97e-5,"INCLINATION":53.1596,"RA_OF_ASC_NODE":21.6022,"ARG_OF_PERICENTER":111.1011,"MEAN_ANOMALY":298.6445,"EPHEMERIS_TYPE":0,"CLASSIFICATION_TYPE":"U","NORAD_CAT_ID":68067,"ELEMENT_SET_NO":999,"REV_AT_EPOCH":367,"BSTAR":0.00074785,"MEAN_MOTION_DOT":0.00115253,"MEAN_MOTION_DDOT":0},{"OBJECT_NAME":"STARLINK-36990","OBJECT_ID":"2026-041AE","EPOCH":"2026-03-17T20:36:39.990816","MEAN_MOTION":15.81027803,"ECCENTRICITY":0.000158,"INCLINATION":53.1592,"RA_OF_ASC_NODE":20.953,"ARG_OF_PERICENTER":164.4407,"MEAN_ANOMALY":195.6665,"EPHEMERIS_TYPE":0,"CLASSIFICATION_TYPE":"U","NORAD_CAT_ID":68068,"ELEMENT_SET_NO":999,"REV_AT_EPOCH":251,"BSTAR":0.0020762,"MEAN_MOTION_DOT":0.004334,"MEAN_MOTION_DDOT":0},{"OBJECT_NAME":"STARLINK-36766","OBJECT_ID":"2026-042A","EPOCH":"2026-03-17T14:00:01.999872","MEAN_MOTION":15.80868194,"ECCENTRICITY":0.0001218,"INCLINATION":53.1599,"RA_OF_ASC_NODE":155.2209,"ARG_OF_PERICENTER":84.6935,"MEAN_ANOMALY":188.2654,"EPHEMERIS_TYPE":0,"CLASSIFICATION_TYPE":"U","NORAD_CAT_ID":68069,"ELEMENT_SET_NO":999,"REV_AT_EPOCH":331,"BSTAR":6.9035592e-5,"MEAN_MOTION_DOT":0.00012944,"MEAN_MOTION_DDOT":0},{"OBJECT_NAME":"STARLINK-36823","OBJECT_ID":"2026-042B","EPOCH":"2026-03-17T14:00:01.999872","MEAN_MOTION":15.80882487,"ECCENTRICITY":0.00011898,"INCLINATION":53.1597,"RA_OF_ASC_NODE":155.2118,"ARG_OF_PERICENTER":84.0139,"MEAN_ANOMALY":193.2089,"EPHEMERIS_TYPE":0,"CLASSIFICATION_TYPE":"U","NORAD_CAT_ID":68070,"ELEMENT_SET_NO":999,"REV_AT_EPOCH":331,"BSTAR":-6.3370443e-5,"MEAN_MOTION_DOT":-0.00013193,"MEAN_MOTION_DDOT":0},{"OBJECT_NAME":"STARLINK-36970","OBJECT_ID":"2026-042C","EPOCH":"2026-03-17T14:00:01.999872","MEAN_MOTION":15.80859465,"ECCENTRICITY":9.783e-5,"INCLINATION":53.1596,"RA_OF_ASC_NODE":155.1941,"ARG_OF_PERICENTER":75.2331,"MEAN_ANOMALY":210.5201,"EPHEMERIS_TYPE":0,"CLASSIFICATION_TYPE":"U","NORAD_CAT_ID":68071,"ELEMENT_SET_NO":999,"REV_AT_EPOCH":332,"BSTAR":0.00021758212,"MEAN_MOTION_DOT":0.00042429,"MEAN_MOTION_DDOT":0},{"OBJECT_NAME":"STARLINK-36972","OBJECT_ID":"2026-042D","EPOCH":"2026-03-17T14:00:01.999872","MEAN_MOTION":15.80858542,"ECCENTRICITY":0.00010571,"INCLINATION":53.1596,"RA_OF_ASC_NODE":155.2031,"ARG_OF_PERICENTER":93.0129,"MEAN_ANOMALY":188.4686,"EPHEMERIS_TYPE":0,"CLASSIFICATION_TYPE":"U","NORAD_CAT_ID":68072,"ELEMENT_SET_NO":999,"REV_AT_EPOCH":332,"BSTAR":0.00024171881,"MEAN_MOTION_DOT":0.00047238,"MEAN_MOTION_DDOT":0},{"OBJECT_NAME":"STARLINK-37074","OBJECT_ID":"2026-042E","EPOCH":"2026-03-17T14:00:01.999872","MEAN_MOTION":15.80859603,"ECCENTRICITY":0.00011858,"INCLINATION":53.1596,"RA_OF_ASC_NODE":155.1855,"ARG_OF_PERICENTER":93.9016,"MEAN_ANOMALY":196.1319,"EPHEMERIS_TYPE":0,"CLASSIFICATION_TYPE":"U","NORAD_CAT_ID":68073,"ELEMENT_SET_NO":999,"REV_AT_EPOCH":332,"BSTAR":0.00017386114,"MEAN_MOTION_DOT":0.00033728,"MEAN_MOTION_DDOT":0}]
